NORAD_CAT_ID,OBJECT_NAME,OBJECT_TYPE,EPOCH,MEAN_MOTION,ECCENTRICITY,INCLINATION,RA_OF_ASC_NODE,ARG_OF_PERICENTER,MEAN_ANOMALY,BSTAR,MEAN_MOTION_DOT,MEAN_MOTION_DDOT,TLE_LINE0,TLE_LINE1,TLE_LINE2,SEMIMAJOR_AXIS,PERIOD,APOGEE,PERIGEE,DECAYED
52877.0,STARLINK-4214,PAYLOAD,2023-09-04 11:59:53,15.08829875,0.0001166,53.2176,171.544,96.4901,263.6224,0.0001295,1.773e-05,0.0,0 STARLINK-4214,1 52877U 22062AZ  23247.49992234  .00001773  00000-0  12950-3 0  9999,2 52877  53.2176 171.5440 0001166  96.4901 263.6224 15.08829875 67607,6917.911,95.438,540.583,538.97,0.0
52877.0,STARLINK-4214,PAYLOAD,2023-09-05 03:53:44,15.08845099,0.000111,53.2173,168.5699,94.1398,265.972,0.00013638,1.884e-05,0.0,0 STARLINK-4214,1 52877U 22062AZ  23248.16231515  .00001884  00000-0  13638-3 0  9999,2 52877  53.2173 168.5699 0001110  94.1398 265.9720 15.08845099 68197,6917.865,95.437,540.498,538.962,0.0
52877.0,STARLINK-4214,PAYLOAD,2023-09-05 05:29:07,15.08845399,0.0001191,53.2178,168.273,98.4439,261.6688,0.00015535,2.186e-05,0.0,0 STARLINK-4214,1 52877U 22062AZ  23248.22855513  .00002186  00000-0  15535-3 0  9990,2 52877  53.2178 168.2730 0001191  98.4439 261.6688 15.08845399 67713,6917.864,95.437,540.553,538.905,0.0
52877.0,STARLINK-4214,PAYLOAD,2023-09-06 02:09:08,15.08836467,0.0001117,53.2167,164.4058,79.355,280.7567,0.00029677,4.438e-05,0.0,0 STARLINK-4214,1 52877U 22062AZ  23249.08968093  .00004438  00000-0  29677-3 0  9997,2 52877  53.2167 164.4058 0001117  79.3550 280.7567 15.08836467 68335,6917.891,95.438,540.529,538.983,0.0
52877.0,STARLINK-4214,PAYLOAD,2023-09-07 00:24:32,15.08841283,0.0001283,53.2166,160.2426,81.6717,278.4421,0.00018343,2.633e-05,0.0,0 STARLINK-4214,1 52877U 22062AZ  23250.01704021  .00002633  00000-0  18343-3 0  9994,2 52877  53.2166 160.2426 0001283  81.6717 278.4421 15.08841283 67987,6917.876,95.437,540.629,538.854,0.0
52877.0,STARLINK-4214,PAYLOAD,2023-09-07 17:53:46,15.08842599,0.0001176,53.2171,156.9723,80.9622,279.1503,5.7148e-05,6.22e-06,0.0,0 STARLINK-4214,1 52877U 22062AZ  23250.74567824  .00000622  00000-0  57148-4 0  9995,2 52877  53.2171 156.9723 0001176  80.9622 279.1503 15.08842599 68580,6917.872,95.437,540.551,538.924,0.0
52877.0,STARLINK-4214,PAYLOAD,2023-09-08 03:26:05,15.08846362,0.0001431,53.2175,155.187,90.671,269.4446,9.5221e-05,1.228e-05,0.0,0 STARLINK-4214,1 52877U 22062AZ  23251.14311561  .00001228  00000-0  95221-4 0  9992,2 52877  53.2175 155.1870 0001431  90.6710 269.4446 15.08846362 68151,6917.861,95.437,540.716,538.736,0.0
52877.0,STARLINK-4214,PAYLOAD,2023-09-08 20:55:19,15.08840091,0.0001465,53.2179,151.9153,98.4119,261.7039,0.00010413,1.37e-05,0.0,0 STARLINK-4214,1 52877U 22062AZ  23251.87175847  .00001370  00000-0  10413-3 0  9994,2 52877  53.2179 151.9153 0001465  98.4119 261.7039 15.08840091 68267,6917.88,95.438,540.759,538.732,0.0
52877.0,STARLINK-4214,PAYLOAD,2023-09-09 00:06:06,15.08842593,0.0001477,53.2174,151.3211,91.4629,268.6533,0.00012629,1.723e-05,0.0,0 STARLINK-4214,1 52877U 22062AZ  23252.00423673  .00001723  00000-0  12629-3 0  9996,2 52877  53.2174 151.3211 0001477  91.4629 268.6533 15.08842593 68773,6917.872,95.437,540.759,538.716,0.0
52877.0,STARLINK-4214,PAYLOAD,2023-09-09 03:16:52,15.08843915,0.0001453,53.2172,150.726,91.192,268.9238,0.00013445,1.853e-05,0.0,0 STARLINK-4214,1 52877U 22062AZ  23252.13671525  .00001853  00000-0  13445-3 0  9992,2 52877  53.2172 150.7260 0001453  91.1920 268.9238 15.08843915 68306,6917.868,95.437,540.739,538.728,0.0
52877.0,STARLINK-4214,PAYLOAD,2023-09-10 01:32:16,15.08844231,0.0001346,53.2171,146.5643,81.7387,278.3758,6.6278e-05,7.67e-06,0.0,0 STARLINK-4214,1 52877U 22062AZ  23253.06407796  .00000767  00000-0  66278-4 0  9998,2 52877  53.2171 146.5643 0001346  81.7387 278.3758 15.08844231 68939,6917.867,95.437,540.664,538.801,0.0
52877.0,STARLINK-4214,PAYLOAD,2023-09-10 03:07:39,15.08843978,0.0001388,53.217,146.2659,80.9727,279.1422,7.1089e-05,8.44e-06,0.0,0 STARLINK-4214,1 52877U 22062AZ  23253.13031816  .00000844  00000-0  71089-4 0  9994,2 52877  53.2170 146.2659 0001388  80.9727 279.1422 15.08843978 68458,6917.868,95.437,540.693,538.773,0.0
52877.0,STARLINK-4214,PAYLOAD,2023-09-10 22:12:17,15.08837764,0.0001396,53.217,142.6979,84.3431,275.772,1.0823e-05,-1.16e-06,0.0,0 STARLINK-4214,1 52877U 22062AZ  23253.92520557 -.00000116  00000-0  10823-4 0  9998,2 52877  53.2170 142.6979 0001396  84.3431 275.7720 15.08837764 69069,6917.887,95.438,540.718,538.786,0.0
52877.0,STARLINK-4214,PAYLOAD,2023-09-11 09:19:59,15.08846221,0.0001395,53.2172,140.6166,82.0771,278.0379,5.7815e-05,6.32e-06,0.0,0 STARLINK-4214,1 52877U 22062AZ  23254.38887906  .00000632  00000-0  57815-4 0  9997,2 52877  53.2172 140.6166 0001395  82.0771 278.0379 15.08846221 69130,6917.861,95.437,540.691,538.761,0.0
52877.0,STARLINK-4214,PAYLOAD,2023-09-11 15:41:32,15.08838058,0.0001502,53.218,139.4308,94.9693,265.1471,0.00013958,1.934e-05,0.0,0 STARLINK-4214,1 52877U 22062AZ  23254.65384371  .00001934  00000-0  13958-3 0  9990,2 52877  53.2180 139.4308 0001502  94.9693 265.1471 15.08838058 69171,6917.886,95.438,540.79,538.712,0.0
52877.0,STARLINK-4214,PAYLOAD,2023-09-11 23:38:27,15.08840371,0.0001456,53.2177,137.9439,96.2103,263.9055,7.8234e-05,9.57e-06,0.0,0 STARLINK-4214,1 52877U 22062AZ  23254.98504482  .00000957  00000-0  78234-4 0  9996,2 52877  53.2177 137.9439 0001456  96.2103 263.9055 15.08840371 68730,6917.879,95.438,540.751,538.737,0.0
52877.0,STARLINK-4214,PAYLOAD,2023-09-12 20:18:28,15.0884426,0.0001351,53.2172,134.0782,100.0527,260.0617,0.00010178,1.332e-05,0.0,0 STARLINK-4214,1 52877U 22062AZ  23255.84616350  .00001332  00000-0  10178-3 0  9990,2 52877  53.2172 134.0782 0001351 100.0527 260.0617 15.08844260 68869,6917.867,95.437,540.667,538.798,0.0
52877.0,STARLINK-4214,PAYLOAD,2023-09-12 23:29:14,15.08851761,0.0001342,53.2155,133.4832,103.4126,256.7016,0.00013535,1.868e-05,0.0,0 STARLINK-4214,1 52877U 22062AZ  23255.97863791  .00001868  00000-0  13535-3 0  9991,2 52877  53.2155 133.4832 0001342 103.4126 256.7016 15.08851761 69377,6917.844,95.437,540.638,538.781,0.0
52877.0,STARLINK-4214,PAYLOAD,2023-09-13 21:44:38,15.08849178,0.0001336,53.2158,129.3174,85.2536,274.8609,0.00014094,1.956e-05,0.0,0 STARLINK-4214,1 52877U 22062AZ  23256.90599796  .00001956  00000-0  14094-3 0  9995,2 52877  53.2158 129.3174 0001336  85.2536 274.8609 15.08849178 69028,6917.852,95.437,540.642,538.793,0.0
52877.0,STARLINK-4214,PAYLOAD,2023-09-14 00:55:24,15.08854876,0.0001306,53.2159,128.7236,83.8581,276.256,0.00024464,3.609e-05,0.0,0 STARLINK-4214,1 52877U 22062AZ  23257.03847422  .00003609  00000-0  24464-3 0  9991,2 52877  53.2159 128.7236 0001306  83.8581 276.2560 15.08854876 69531,6917.835,95.437,540.603,538.796,0.0
52877.0,STARLINK-4214,PAYLOAD,2023-09-14 15:13:53,15.08834977,0.0001933,53.2158,126.0471,79.4412,280.6798,-9.6588e-05,-1.825e-05,0.0,0 STARLINK-4214,1 52877U 22062AZ  23257.63464830 -.00001825  00000-0 -96588-4 0  9992,2 52877  53.2158 126.0471 0001933  79.4412 280.6798 15.08834977 69624,6917.896,95.438,541.098,538.424,0.0
52877.0,STARLINK-4214,PAYLOAD,2023-09-14 21:35:26,15.08831223,0.0001526,53.2164,124.8568,92.4042,267.7125,-0.00012471,-2.272e-05,0.0,0 STARLINK-4214,1 52877U 22062AZ  23257.89960996 -.00002272  00000-0 -12471-3 0  9999,2 52877  53.2164 124.8568 0001526  92.4042 267.7125 15.08831223 69177,6917.907,95.438,540.828,538.717,0.0
52877.0,STARLINK-4214,PAYLOAD,2023-09-14 23:10:49,15.08831158,0.0001458,53.216,124.5593,91.0002,269.1158,-0.00012153,-2.221e-05,0.0,0 STARLINK-4214,1 52877U 22062AZ  23257.96585039 -.00002221  00000-0 -12153-3 0  9999,2 52877  53.2160 124.5593 0001458  91.0002 269.1158 15.08831158 69183,6917.907,95.438,540.781,538.764,0.0
52877.0,STARLINK-4214,PAYLOAD,2023-09-15 18:15:26,15.0884138,0.0001376,53.2162,120.991,88.4547,271.6603,9.4142e-05,1.211e-05,0.0,0 STARLINK-4214,1 52877U 22062AZ  23258.76072820  .00001211  00000-0  94142-4 0  9992,2 52877  53.2162 120.9910 0001376  88.4547 271.6603 15.08841380 69799,6917.876,95.437,540.693,538.789,0.0
52877.0,STARLINK-4214,PAYLOAD,2023-09-16 00:36:59,15.08850387,0.0001499,53.2162,119.8009,93.0986,267.0177,0.00041047,6.253e-05,0.0,0 STARLINK-4214,1 52877U 22062AZ  23259.02568654  .00006253  00000-0  41047-3 0  9993,2 52877  53.2162 119.8009 0001499  93.0986 267.0177 15.08850387 69837,6917.849,95.437,540.751,538.677,0.0
52877.0,STARLINK-4214,PAYLOAD,2023-09-16 18:06:14,15.08842057,0.0001796,53.2161,116.5264,100.7634,259.3561,0.0002216,3.241e-05,0.0,0 STARLINK-4214,1 52877U 22062AZ  23259.75433123  .00003241  00000-0  22160-3 0  9994,2 52877  53.2161 116.5264 0001796 100.7634 259.3561 15.08842057 69947,6917.874,95.437,540.982,538.497,0.0
52877.0,STARLINK-4214,PAYLOAD,2023-09-17 00:27:46,15.08848192,0.0001508,53.2162,115.341,86.9422,273.1743,0.00036686,5.557e-05,0.0,0 STARLINK-4214,1 52877U 22062AZ  23260.01929129  .00005557  00000-0  36686-3 0  9991,2 52877  53.2162 115.3410 0001508  86.9422 273.1743 15.08848192 69491,6917.855,95.437,540.764,538.677,0.0
52877.0,STARLINK-4214,PAYLOAD,2023-09-17 22:43:10,15.08858698,0.0001454,53.2155,111.1768,84.1614,275.9544,0.00046945,7.195e-05,0.0,0 STARLINK-4214,1 52877U 22062AZ  23260.94664415  .00007195  00000-0  46945-3 0  9996,2 52877  53.2155 111.1768 0001454  84.1614 275.9544 15.08858698 70129,6917.823,95.436,540.694,538.682,0.0
52877.0,STARLINK-4214,PAYLOAD,2023-09-18 17:47:47,15.08845075,0.0001388,53.2153,107.6078,98.5324,261.5825,0.00011379,1.524e-05,0.0,0 STARLINK-4214,1 52877U 22062AZ  23261.74152595  .00001524  00000-0  11379-3 0  9999,2 52877  53.2153 107.6078 0001388  98.5324 261.5825 15.08845075 70245,6917.865,95.437,540.69,538.77,0.0
52877.0,STARLINK-4214,PAYLOAD,2023-09-18 20:58:34,15.08848596,0.0001306,53.2153,107.0143,90.5841,269.5301,0.00021736,3.174e-05,0.0,0 STARLINK-4214,1 52877U 22062AZ  23261.87400528  .00003174  00000-0  21736-3 0  9996,2 52877  53.2153 107.0143 0001306  90.5841 269.5301 15.08848596 69772,6917.854,95.437,540.623,538.816,0.0
